[{"OBJECT_NAME":"STARLINK-5403","OBJECT_ID":"2022-177AU","EPOCH":"2026-03-09T22:00:01.999584","MEAN_MOTION":15.12897417,"ECCENTRICITY":0.00011008,"INCLINATION":43.0004,"RA_OF_ASC_NODE":119.0741,"ARG_OF_PERICENTER":276.3038,"MEAN_ANOMALY":305.4893,"EPHEMERIS_TYPE":0,"CLASSIFICATION_TYPE":"U","NORAD_CAT_ID":54862,"ELEMENT_SET_NO":999,"REV_AT_EPOCH":578,"BSTAR":0.0014769276,"MEAN_MOTION_DOT":0.00026334,"MEAN_MOTION_DDOT":0},{"OBJECT_NAME":"PIESAT C","OBJECT_ID":"2023-047C","EPOCH":"2026-03-09T13:45:37.301760","MEAN_MOTION":15.14301617,"ECCENTRICITY":0.0001962,"INCLINATION":97.5027,"RA_OF_ASC_NODE":257.1489,"ARG_OF_PERICENTER":78.3327,"MEAN_ANOMALY":281.8125,"EPHEMERIS_TYPE":0,"CLASSIFICATION_TYPE":"U","NORAD_CAT_ID":56155,"ELEMENT_SET_NO":999,"REV_AT_EPOCH":16272,"BSTAR":0.00023896,"MEAN_MOTION_DOT":4.309e-5,"MEAN_MOTION_DDOT":0}]
